[{"OBJECT_NAME":"YAOGAN-43 01H","OBJECT_ID":"2024-148H","EPOCH":"2026-03-10T00:13:57.702432","MEAN_MOTION":15.25826805,"ECCENTRICITY":0.000635,"INCLINATION":34.994,"RA_OF_ASC_NODE":64.6147,"ARG_OF_PERICENTER":359.2394,"MEAN_ANOMALY":0.8311,"EPHEMERIS_TYPE":0,"CLASSIFICATION_TYPE":"U","NORAD_CAT_ID":60465,"ELEMENT_SET_NO":999,"REV_AT_EPOCH":8702,"BSTAR":0.00039232254,"MEAN_MOTION_DOT":0.00010268,"MEAN_MOTION_DDOT":0},{"OBJECT_NAME":"FLOCK 4G-17","OBJECT_ID":"2025-009CA","EPOCH":"2026-03-09T22:51:51.984864","MEAN_MOTION":15.27385439,"ECCENTRICITY":0.00036407,"INCLINATION":97.3966,"RA_OF_ASC_NODE":151.0229,"ARG_OF_PERICENTER":339.6132,"MEAN_ANOMALY":20.4962,"EPHEMERIS_TYPE":0,"CLASSIFICATION_TYPE":"U","NORAD_CAT_ID":62681,"ELEMENT_SET_NO":999,"REV_AT_EPOCH":12139,"BSTAR":0.00053710713,"MEAN_MOTION_DOT":0.00014342,"MEAN_MOTION_DDOT":0}]
